STARLINK-36618          
1 67847U 26033AC  26061.81754602  .00096149  12226-4  19489-3 0  9994
2 67847  42.9866 311.8820 0003214 245.1255 114.9288 15.99086231  3556
STARLINK-36818          
1 67879U 26035A   26061.83335647 -.00847045  24520-3 -15326-2 0  9992
2 67879  97.2793 353.6169 0001157  94.6972 346.9148 16.01554262  2650
STARLINK-36821          
1 67880U 26035B   26061.83335647 -.00854619  24983-3 -15296-2 0  9998
2 67880  97.2790 353.6195 0001043  84.2357   2.6864 16.01742801  2653
STARLINK-36808          
1 67881U 26035C   26061.83335647 -.00849423  24669-3 -15304-2 0  9997
2 67881  97.2791 353.6180 0001087  88.9274 354.6646 16.01627805  2650
STARLINK-36817          
1 67882U 26035D   26061.83335647 -.00861187  25408-3 -15214-2 0  9991
2 67882  97.2784 353.6221 0001154  83.4272   9.9926 16.01968851  2652
STARLINK-36856          
1 67883U 26035E   26061.83335647 -.00857501  25175-3 -15242-2 0  9999
2 67883  97.2788 353.6208 0001105  90.4084 359.9947 16.01862513  2656
STARLINK-36842          
1 67884U 26035F   26061.83335647 -.00843126  24453-3 -14814-2 0  9990
2 67884  97.2785 353.6233 0001038  76.0688  20.1496 16.02060063  2654
STARLINK-36826          
1 67885U 26035G   26061.83335647 -.00847957  24739-3 -14826-2 0  9997
2 67885  97.2783 353.6242 0001080  77.9352  20.4745 16.02145361  2653
STARLINK-36390          
1 67886U 26035H   26061.83335647 -.00861890  25536-3 -14962-2 0  9997
2 67886  97.2781 353.6255 0001079  88.4743  13.3764 16.02270765  2700
STARLINK-36368          
1 67887U 26035J   26061.83335647 -.00861811  25566-3 -14861-2 0  9992
2 67887  97.2780 353.6270 0001100  89.4090  15.6980 16.02385297  2654
STARLINK-36801          
1 67888U 26035K   26061.83335647 -.00847875  24839-3 -14518-2 0  9998
2 67888  97.2777 353.6283 0001067  83.8562  24.3719 16.02504447  2656
STARLINK-36372          
1 67889U 26035L   26061.83335647 -.00856050  25348-3 -14479-2 0  9996
2 67889  97.2773 353.6307 0001100  91.3390  22.8621 16.02715607  2658
STARLINK-36363          
1 67890U 26035M   26061.83335647 -.00862324  25667-3 -14662-2 0  9997
2 67890  97.2778 353.6299 0001133  93.6898  18.0891 16.02626695  2653
STARLINK-36816          
1 67891U 26035N   26061.83335647 -.01037451  36925-3 -15901-2 0  9990
2 67891  97.2749 353.6488 0001066  81.0832  78.5037 16.04405000  2544
STARLINK-36813          
1 67892U 26035P   26061.83335647 -.00938801  30427-3 -15007-2 0  9997
2 67892  97.2754 353.6403 0001091  90.4024  48.8999 16.03685411  2657
STARLINK-36803          
1 67893U 26035Q   26061.83335647 -.00851074  25115-3 -14281-2 0  9995
2 67893  97.2772 353.6323 0001061  95.6749  22.3272 16.02850114  2651
